STARLINK-34038          
1 63911U 25095X   26068.33763224  .00022448  00000+0  82242-3 0  9993
2 63911  42.9999 178.2312 0000730 258.9451 101.1318 15.27594626 47724
REAL                    
1 64875U 25154G   26068.72233414  .00022901  00000+0  82904-3 0  9994
2 64875  97.4133 137.2581 0001853 118.5876 241.5550 15.28408058 34830
