[{"OBJECT_NAME":"STARLINK-34038","OBJECT_ID":"2025-095X","EPOCH":"2026-03-09T08:06:11.425536","MEAN_MOTION":15.27594626,"ECCENTRICITY":7.303e-5,"INCLINATION":42.9999,"RA_OF_ASC_NODE":178.2312,"ARG_OF_PERICENTER":258.9451,"MEAN_ANOMALY":101.1318,"EPHEMERIS_TYPE":0,"CLASSIFICATION_TYPE":"U","NORAD_CAT_ID":63911,"ELEMENT_SET_NO":999,"REV_AT_EPOCH":4772,"BSTAR":0.00082242208,"MEAN_MOTION_DOT":0.00022448,"MEAN_MOTION_DDOT":0},{"OBJECT_NAME":"REAL","OBJECT_ID":"2025-154G","EPOCH":"2026-03-09T17:20:09.670560","MEAN_MOTION":15.28408058,"ECCENTRICITY":0.00018528,"INCLINATION":97.4133,"RA_OF_ASC_NODE":137.2581,"ARG_OF_PERICENTER":118.5876,"MEAN_ANOMALY":241.555,"EPHEMERIS_TYPE":0,"CLASSIFICATION_TYPE":"U","NORAD_CAT_ID":64875,"ELEMENT_SET_NO":999,"REV_AT_EPOCH":3483,"BSTAR":0.0008290401,"MEAN_MOTION_DOT":0.00022901,"MEAN_MOTION_DDOT":0}]
